[Satellite]
VERSION=1.1
NAME=X-CUBESAT
NICKNAME=X-CUBESAT
TLE1=1 42707U 98067LQ  18021.13750682  .00021811  00000-0  22914-3 0  9998
TLE2=2 42707  51.6363  22.6939 0002061  33.7728 326.3398 15.64265826 38859
